STARLINK-35431          
1 66030U 25232AB  26068.36694824  .00012522  00000+0  43421-3 0  9991
2 66030  53.1592 105.5703 0001254 111.6918 248.4216 15.30199693 23381
2025-313BD              
1 67299U 25313BD  26068.62968741  .00081010  00000+0  27634-2 0  9995
2 67299  97.3970 145.2850 0007287 333.4514  26.6352 15.30002360 10838
